NOAA 18                 
1 28654U 05018A   24288.42903992  .00000617  00000+0  35178-3 0  9991
2 28654  98.8659   4.3633 0015211  86.4426 273.8486 14.13372593   108
